[Satellite]
VERSION=1.1
NAME=RADUGA 32
NICKNAME=RADUGA 32
TLE1=1 23448U 94087A   17186.12770573 -.00000114  00000-0  00000-0 0  9991
TLE2=2 23448  14.5251  18.8773 0008501 202.4009 182.3236  1.00284600100160
